ARIANE 40 R/B           
1 20443U 90005H   26046.15931219  .00000245  00000+0  91657-4 0  9998
2 20443  98.3134 107.4864 0008877 272.1024  87.9148 14.39854924889563
DELTA 2 R/B(1)          
1 20453U 90008B   26046.15089972  .00061323  00000+0  79537-3 0  9998
2 20453  35.6054 322.4081 0090984  48.0753 312.7696 15.52817677922620
COSMOS 2058             
1 20465U 90010A   26046.46649105  .00005300  00000+0  31428-3 0  9998
2 20465  82.4654  69.3214 0011363  58.4037 301.8300 15.11114373938882
SL-14 R/B               
1 20466U 90010B   26046.15960486  .00000399  00000+0  45424-4 0  9998
2 20466  82.5018 288.5542 0020323  18.4642 341.7306 14.83548963925149
SL-14 R/B               
1 20511U 90018B   26046.49325722  .00000555  00000+0  66691-4 0  9995
2 20511  82.5180 243.8404 0016744 160.3094 199.8771 14.82120934919291
HST                     
1 20580U 90037B   26046.42870873  .00008875  00000+0  29710-3 0  9990
2 20580  28.4670 191.8156 0001369 214.6582 145.3924 15.29118613769908
SL-16 R/B               
1 20625U 90046B   26046.21722512  .00000346  00000+0  20318-3 0  9993
2 20625  71.0013 345.1080 0015119 330.9489  29.0790 14.15010537845217
COSMOS 2084             
1 20663U 90055A   26046.40553535  .00003427  00000+0  25001-3 0  9990
2 20663  62.7897  51.5722 0020542 185.1591 174.9301 15.05503509932960
SL-6 R/B(2)             
1 20666U 90055D   26046.22497425  .00002974  00000+0  23063-3 0  9990
2 20666  62.7847 330.2386 0021359 340.9321  19.0976 15.03481595934811
SL-8 R/B                
1 20775U 90078B   26046.05851569  .00011912  00000+0  34947-3 0  9995
2 20775  82.9016 271.6525 0366457  89.8411 274.4789 14.88295254805933
SL-8 R/B                
1 21088U 91006B   26046.47050772  .00000016  00000+0  77550-6 0  9991
2 21088  82.9443 186.5638 0023757  97.5343 325.3928 13.77492286761019
OKEAN-3                 
1 21397U 91039A   26046.33517817  .00005319  00000+0  37575-3 0  9994
2 21397  82.5186 358.4923 0016083  50.5064 309.7582 15.04627701861671
COSMOS 2151             
1 21422U 91042A   26046.47029374  .00001881  00000+0  14884-3 0  9996
2 21422  82.4953 105.1118 0013731 130.5519 229.6903 15.00020601859862
SL-14 R/B               
1 21423U 91042B   26046.47406476  .00000494  00000+0  59508-4 0  9991
2 21423  82.4898 241.0188 0016036 318.2280  41.7709 14.81807390849782
ERS-1                   
1 21574U 91050A   26046.52319492  .00000427  00000+0  15142-3 0  9995
2 21574  98.7893  64.2002 0030871 267.9763  91.7888 14.39431732812546
ARIANE 40 R/B           
1 21610U 91050F   26046.14143403  .00000287  00000+0  98364-4 0  9993
2 21610  98.2060  99.2188 0004105 130.1977 229.9573 14.42876506815747
INTERCOSMOS 25          
1 21819U 91086A   26046.20120896  .00001490  00000+0  28802-3 0  9997
2 21819  82.6086 323.5976 1486911 165.3774 199.5720 12.11938264493962
SL-8 R/B                
1 21876U 92008B   26046.19141976  .00000055  00000+0  41171-4 0  9996
2 21876  82.9254 284.5167 0034182 195.5007 284.4703 13.75969909706328
SL-8 R/B                
1 21938U 92020B   26046.43482443  .00000097  00000+0  84892-4 0  9996
2 21938  82.9337 170.2797 0028864   2.6889  62.5450 13.75546443698075
USA 81                  
1 21949U 92023A   26046.23441009  .00000223  00000+0  75300-4 0  9997
2 21949  85.0118 144.3900 0002752  97.8505 262.3000 14.32359889 91578
COSMOS 2219             
1 22219U 92076A   26046.45062374  .00000176  00000+0  11728-3 0  9994
2 22219  71.0580  64.5599 0020030 237.1294 122.7901 14.14077787715236
SL-16 R/B               
1 22220U 92076B   26046.52241253 -.00000179  00000+0 -65408-4 0  9999
2 22220  70.9975 235.0682 0011197 136.6391 254.8472 14.16855316718694
COSMOS 2221             
1 22236U 92080A   26046.16572933  .00001782  00000+0  15598-3 0  9996
2 22236  82.5048 300.6543 0012795 269.5170  90.4585 14.96110533777420
SL-16 R/B               
1 22285U 92093B   26046.40773557  .00000286  00000+0  17098-3 0  9991
2 22285  71.0203  51.0416 0005389 317.8274  42.2434 14.15443010710008
COSMOS 2228             
1 22286U 92094A   26046.53102962  .00002316  00000+0  19802-3 0  9994
2 22286  82.5149 258.5302 0018570  20.9173 339.2805 14.97085539772747
SL-16 R/B               
1 22566U 93016B   26046.02183250 -.00000242  00000+0 -99946-4 0  9999
2 22566  71.0051 262.7932 0010558 344.9610  15.1197 14.15301579698962
COSMOS 2242             
1 22626U 93024A   26046.10265616  .00001812  00000+0  15698-3 0  9994
2 22626  82.5183 288.3220 0017180  26.1162 334.0923 14.96453602777013
SL-16 R/B               
1 22803U 93059B   26046.45553292 -.00000143  00000+0 -47075-4 0  9990
2 22803  70.9890  58.0143 0019401 247.2090 112.6984 14.17227966676386
ARIANE 40 R/B           
1 22830U 93061H   26046.14323493  .00000175  00000+0  80015-4 0  9991
2 22830  98.4965 115.4703 0010415 357.3689   2.7439 14.32848522690875
COSMOS 2278             
1 23087U 94023A   26046.46110728  .00000105  00000+0  79704-4 0  9991
2 23087  71.0504 221.6022 0006936  56.6228 303.5557 14.14364002641663
SL-16 R/B               
1 23088U 94023B   26046.51766367  .00000336  00000+0  19806-3 0  9996
2 23088  70.9994 117.4538 0004679 306.6568  53.4124 14.15006622642952
SL-16 R/B               
1 23343U 94074B   26046.06614027  .00000453  00000+0  67387-4 0  9999
2 23343  97.7140  77.7968 0005295 302.2193 111.6624 14.79380133683906
SL-16 R/B               
1 23405U 94077B   26046.36659442  .00000323  00000+0  18975-3 0  9998
2 23405  70.9826  39.4512 0004010 231.7333 128.3430 14.15561322613077
ARIANE 40+ R/B          
1 23561U 95021B   26046.23190875  .00000365  00000+0  13023-3 0  9992
2 23561  98.4546 118.0136 0006463 199.5975 228.2917 14.39755916616014
SL-16 R/B               
1 23705U 95058B   26046.51380769  .00000038  00000+0  43869-4 0  9995
2 23705  71.0197 226.8114 0011664 163.7027 196.4473 14.15495852564713
SL-16 R/B               
1 24298U 96051B   26046.50315428  .00000113  00000+0  87758-4 0  9995
2 24298  70.7569 222.1983 0016972 179.5342 180.5796 14.12409440518519
ORBVIEW 2 (SEASTAR)     
1 24883U 97037A   26046.46159647  .00000391  00000+0  15217-3 0  9992
2 24883  98.8527 210.1894 0003161 116.9628 243.1880 14.35477897505286
SL-16 R/B               
1 25400U 98043G   26046.48977150  .00000083  00000+0  53795-4 0  9997
2 25400  98.8216 359.7011 0010966  79.7456 280.4959 14.26044512435821
SL-16 R/B               
1 25407U 98045B   26046.53565895  .00000324  00000+0  18778-3 0  9990
2 25407  71.0087 228.1621 0005674  48.3233 311.8375 14.16188338423965
ISS (ZARYA)             
1 25544U 98067A   26046.44054941  .00012882  00000+0  24435-3 0  9990
2 25544  51.6317 182.3364 0011011 101.2437 258.9789 15.48624284552884
CZ-4B R/B               
1 25732U 99025C   26046.16189672  .00000057  00000+0  48063-4 0  9998
2 25732  98.6672  90.9721 0037915  50.9851  17.4537 14.18260652384973
OKEAN-O                 
1 25860U 99039A   26046.14307900  .00000630  00000+0  89568-4 0  9991
2 25860  97.9493 106.2581 0001832  82.0327 278.1093 14.80297249431052
SL-16 R/B               
1 25861U 99039B   26046.14424117  .00000551  00000+0  76769-4 0  9993
2 25861  98.0016 105.2686 0014151 335.6061  24.4480 14.81698644433522
DELTA 2 R/B             
1 25876U 99041E   26046.35418737  .00002451  00000+0  43154-3 0  9998
2 25876  51.7656  30.4765 0502253 282.4581  72.0611 14.11753165359875
HELIOS 1B               
1 25977U 99064A   26046.31588323  .00002098  00000+0  23731-3 0  9996
2 25977  98.1723 307.8992 0002276 104.5264 255.6204 14.87604591681935
TERRA                   
1 25994U 99068A   26046.45610254  .00000561  00000+0  12351-3 0  9992
2 25994  97.9642 100.7348 0001134 225.1951 191.5972 14.60990588391833
SL-16 R/B               
1 26070U 00006B   26046.47463424 -.00000195  00000+0 -74709-4 0  9990
2 26070  71.0026 144.5477 0018085 221.5365 138.4385 14.15818991345417
TITAN 4B R/B            
1 26474U 00047B   26046.49849159  .00003976  00000+0  25278-3 0  9992
2 26474  67.9890 102.9034 0037085  62.5330 297.9582 15.09368942389565
ENVISAT                 
1 27386U 02009A   26046.51148047  .00000154  00000+0  63720-4 0  9996
2 27386  98.3691   0.6423 0001353  87.0987  28.1480 14.39028613255989
IDEFIX & ARIANE 42P R/B 
1 27422U 02021B   26046.40102611  .00000334  00000+0  14370-3 0  9992
2 27422  98.5848 345.2770 0010630 252.4247 107.5775 14.31010076240837
AQUA                    
1 27424U 02022A   26046.51866457  .00001275  00000+0  26463-3 0  9993
2 27424  98.4133  13.4870 0001274  48.6318  62.1064 14.61921817265491
CZ-4B R/B               
1 27432U 02024C   26046.14729164  .00000039  00000+0  42694-4 0  9998
2 27432  98.8891  99.6620 0051200  87.2866 294.6683 14.14543456226050
MIDORI II (ADEOS-II)    
1 27597U 02056A   26046.47204668  .00000385  00000+0  16912-3 0  9995
2 27597  98.7729   4.8019 0002163  73.2610 286.8809 14.29268656207129
H-2A R/B                
1 27601U 02056E   26046.52479899  .00000352  00000+0  13803-3 0  9997
2 27601  98.3162   7.7398 0069227 227.0332 244.8431 14.33745362210935
CZ-4B R/B               
1 28059U 03049C   26046.51521940  .00000575  00000+0  14361-3 0  9999
2 28059  98.6854  40.5543 0047146 300.2005  59.4526 14.54996662183374
CZ-2C R/B               
1 28222U 04012C   26046.13904061  .00045502  00000+0  52081-3 0  9999
2 28222  97.7292 109.3383 0015300  37.6191 322.6132 15.61870521200756
SL-16 R/B               
1 28353U 04021B   26046.04114306  .00000331  00000+0  19699-3 0  9998
2 28353  70.9990 280.0244 0003171  65.2605 294.8847 14.14593362119633
CZ-4B R/B               
1 28415U 04035C   26046.06680311  .00006708  00000+0  23955-3 0  9992
2 28415  97.3538  80.5844 0033697  51.3004 309.1241 15.28635351176459
CZ-2C R/B               
1 28480U 04046B   26046.32793501  .00000133  00000+0  64899-4 0  9990
2 28480  98.1995 322.7013 0138510 220.6583 138.4193 14.26984258105315
